UNKNOWN                 
1 82785U          22222.28170361  .00007120  00000+0  10044-2 0  9998
2 82785  63.1247 319.8201 0392639  51.3099 312.2406 14.36652256454728
UNKNOWN                 
1 82798U          22223.36883929  .00000948  00000+0  48069-3 0  9993
2 82798  82.9502  81.7604 0032139 227.0995 308.3117 14.14834850139510
UNKNOWN                 
1 82820U          22224.46116454  .00001130  00000+0  52458-3 0  9994
2 82820  99.8095 225.2089 0058100 209.6106 150.1774 14.22208728451829
UNKNOWN                 
1 82829U          22224.41876258  .00000038  00000+0  22197-2 0  9995
2 82829  65.0944 214.1231 0182060 244.5605 272.2436 11.28932529348537
UNKNOWN                 
1 82854U          22223.91513335  .00001026  00000+0  87709-3 0  9990
2 82854  82.6906 295.0662 0138596 118.9009 242.6136 13.81812090911503
UNKNOWN                 
1 82873U          22224.05360505  .00001142  00000+0  64703-3 0  9994
2 82873  99.9945 309.5315 0046014  38.8398 321.6062 14.11978121448556
UNKNOWN                 
1 82875U          22224.29776504  .00000371  00000+0  11318-3 0  9999
2 82875  98.6059 231.7937 0392950 171.2427 189.5872 14.11108175372408
UNKNOWN                 
1 82893U          22223.68209298  .00002067  00000+0  12124-2 0  9991
2 82893  98.9733 310.7135 0032439 277.6423  82.1063 14.09057531251174
UNKNOWN                 
1 82912U          22224.64176717  .00002416  00000+0  11522-2 0  9998
2 82912  65.8410  70.8211 0811231 102.7701 266.5164 13.15958216418409
UNKNOWN                 
1 82915U          22219.40554766  .00015544  00000+0  20468-2 0  9998
2 82915  74.0155 105.9375 0023617  96.2508 264.1359 14.79953187302535
UNKNOWN                 
1 82959U          22224.46643813  .00000725  00000+0  43520-3 0  9990
2 82959 100.1097 226.0863 0052027 333.8448  26.0092 14.10175190371884
UNKNOWN                 
1 82961U          22224.57528591  .00001477  00000+0  32601-2 0  9992
2 82961  99.8131  94.2500 0484720 282.0496  72.6701 12.93361405396628
UNKNOWN                 
1 82965U 70025    22222.88080085  .00000598  00000+0  92009-3 0  9995
2 82965 100.2115 246.1354 0000953  43.5378 316.5833 13.56262179358876
UNKNOWN                 
1 82991U          22219.21655650  .00010056  00000+0  14926-2 0  9990
2 82991  86.3104 134.3288 0038108 327.1454  32.7395 14.74452905305512
UNKNOWN                 
1 83903U          22224.57043630 -.00000386  00000+0  00000+0 0  9999
2 83903   9.1411 302.7685 0132021 213.9453 150.0619  0.99116357 31599
UNKNOWN                 
1 83934U          22223.96934264  .00000002  00000+0  00000+0 0  9991
2 83934   8.5008 308.0596 0232077 233.8749 130.5204  1.02660217 32777
UNKNOWN                 
1 83952U          22223.67215180  .00000010  00000+0  10533-2 0  9992
2 83952  20.7143 103.0036 7146844 207.8137  81.2473  2.32167520 55734
UNKNOWN                 
1 83970U          22222.95110771  .00001333  00000+0  73455-3 0  9994
2 83970  18.2568 143.4305 5213616 146.6065 261.1218  5.17006225132130
UNKNOWN                 
1 83975U          22215.98551656 -.00000073  00000+0  00000+0 0  9998
2 83975  19.3224  80.7648 7035482   2.3455 359.8656  2.15337293 55924
UNKNOWN                 
1 84006U          22224.05079621 -.00000071  00000+0  00000+0 0  9997
2 84006  23.7097  51.1322 6132289  12.0819 357.7785  2.16231372 57869
UNKNOWN                 
1 84026U          22224.56973198  .00121997  00000+0  18914-1 0  9992
2 84026  21.8515 334.0114 6051520 172.6524 203.7339  3.97734026 80855
UNKNOWN                 
1 84071U          22222.08310296  .00020955  00000+0  60777-2 0  9998
2 84071  20.4739 243.0162 6983457 249.1893  27.1613  2.65729605 71351
UNKNOWN                 
1 84079U          22223.97324197  .00004269  00000+0  53922-2 0  9994
2 84079  62.7567  69.8406 3970830 180.0632 180.0060  7.08068023218130
UNKNOWN                 
1 84136U          22224.00747649  .00093729  00000+0  48645-2 0  9999
2 84136  51.3781  88.1837 1509378 251.2889  91.8663 12.37305994373708
UNKNOWN                 
1 84170U 12008    22222.98250671  .00008411  00000+0  25128-2 0  9992
2 84170  20.7191 186.3453 6968085 253.4399  24.8679  2.67534748 61042
UNKNOWN                 
1 84188U          22224.55894043  .00009590  00000+0  15689-1 0  9991
2 84188  65.0365 314.3638 4781068 116.3884 299.9125  5.71822019165801
UNKNOWN                 
1 84232U 79104    22224.30674076  .00014246  00000+0  17125-1 0  9998
2 84232  20.2597 198.2714 6866319 340.9112   2.4422  2.75354658 68505
UNKNOWN                 
1 84292U          22221.38699756  .00013903  00000+0  29661-2 0  9998
2 84292  23.9241  13.2153 4809637 246.3472  56.9797  5.91272708153641
UNKNOWN                 
1 84346U          22224.26840140  .00016539  00000+0  34508-2 0  9997
2 84346  20.8509 108.4828 6875510  39.0150 354.4143  2.80933521 51386
UNKNOWN                 
1 84406U          22224.11889368  .00000481  00000+0  28227-2 0  9993
2 84406 101.6745 341.3066 0039779 282.3214 254.7476 12.65263939895067
UNKNOWN                 
1 84407U          22224.46950611  .00000105  00000+0  14593-2 0  9996
2 84407  19.6069 328.7610 7227458 114.5185 333.4609  2.05772682 50780
UNKNOWN                 
1 84415U          22224.38405765  .00126252  00000+0  68533-2 0  9996
2 84415  23.7316 301.3349 4300355 207.0221 122.0069  6.90789008 24174
UNKNOWN                 
1 84434U          22220.91192529  .00000059  00000+0  11740-2 0  9997
2 84434  20.3942  78.3981 7137544 267.5819  16.5708  2.35289765 57095
UNKNOWN                 
1 84452U          22224.45727300  .00029038  00000+0  15011-2 0  9994
2 84452   2.9280  20.7676 6205504  91.4987 335.7924  3.79290270107789
UNKNOWN                 
1 84480U          22222.47256488  .00003289  00000+0  15594-2 0  9995
2 84480  45.9468  38.5169 4534512 334.2803   8.7976  6.28913014181226
UNKNOWN                 
1 84565U          22208.12652552  .00000884  00000+0  23629-2 0  9993
2 84565   1.8060 143.5681 7223712 163.5719 244.7522  2.28207522 35351
UNKNOWN                 
1 84575U          22224.28828751 -.00000095  00000+0  23838-2 0  9992
2 84575  18.0938 205.3451 7105278 356.1792   0.2705  2.19809776 38658
UNKNOWN                 
1 84588U          22223.77437150  .00000589  00000+0  41867-3 0  9998
2 84588   2.5604 344.3620 6997767  51.0987 352.7346  2.60671270 75558
UNKNOWN                 
1 84597U          22221.33109895  .00000380  00000+0  13595-2 0  9995
2 84597  18.2113 121.1936 7287564 142.5516 302.2244  2.18201286 41829
UNKNOWN                 
1 84840U          22215.62707156 -.00000612  00000+0  00000+0 0  9998
2 84840  16.5818 347.5841 8150653 282.9748   1.1963  0.46178176   511
UNKNOWN                 
1 84911U          22224.40551241  .00001321  00000+0  18946-1 0  9992
2 84911   1.8338 308.4216 6560749 302.5421  25.5954  2.95831801 94477
UNKNOWN                 
1 84932U          22223.81621882 -.00000381  00000+0 -39970-2 0  9996
2 84932   2.1344 172.6614 6533519 199.1011 235.5456  2.98923570 95259
UNKNOWN                 
1 84950U          22224.62572907  .00000277  00000+0  00000+0 0  9990
2 84950   2.7767  25.1107 6959882 242.6403  35.4569  2.04190033 65107
UNKNOWN                 
1 84961U          22224.32825572 -.00000009  00000+0  00000+0 0  9992
2 84961   8.4524 296.2135 0147358 227.8466 130.9912  0.98631055 31437
UNKNOWN                 
1 85004U          22224.19599628  .00000420  00000+0  15592-3 0  9998
2 85004  98.2802 212.7177 0049957 216.2430 203.1409 14.36223391456870
UNKNOWN                 
1 85010U          22222.15729219  .00000545  00000+0  65358-3 0  9993
2 85010  99.3488 103.1254 0024526 204.8256 307.5212 13.71309852436416
UNKNOWN                 
1 85011U          22224.27505681  .00015143  00000+0  52769-2 0  9995
2 85011  70.9771 168.1530 0010347 262.6619  97.3338 14.35373490249219
UNKNOWN                 
1 85015U          22223.63667610  .00000242  00000+0  56631-4 0  9997
2 85015  74.0476 206.2338 0013425  64.2154 296.0395 14.59883956464578
UNKNOWN                 
1 85023U          22223.76298435  .00002303  00000+0  94138-3 0  9998
2 85023  99.8669  32.1458 0001055 236.0302 136.3666 14.28474508452945
UNKNOWN                 
1 85027U          22224.21954540  .00000028  00000+0  10373-3 0  9990
2 85027  66.0403 203.1519 0168999 117.7005 244.1320 13.73405771437230
UNKNOWN                 
1 85047U          22223.08469723  .00003045  00000+0  76377-2 0  9997
2 85047 102.4303 313.8989 0221218 133.8340 228.1284 13.12272722414991
UNKNOWN                 
1 85061U          22224.57689906  .00001953  00000+0  86369-2 0  9993
2 85061 102.4123  85.2572 0332112  13.4503  42.3215 12.65486377401069
UNKNOWN                 
1 85100U          22221.63108976  .00000151  00000+0  57535-4 0  9998
2 85100  74.0481 316.8702 0011681 131.6796 294.7324 14.38999461457604
UNKNOWN                 
1 85106U          22224.28767542  .00000328  00000+0  42471-3 0  9996
2 85106 100.1551 247.1264 0009479 225.2492 195.2755 13.70723261436016
UNKNOWN                 
1 85111U 73086    22223.37938289 -.00000270  00000+0 -14684-2 0  9995
2 85111 101.6538 192.4696 0009488 144.7603 215.4097 12.51026228313399
UNKNOWN                 
1 85117U          22220.61788272  .00032912  00000+0  31838-2 0  9992
2 85117  70.0356 291.2098 0052121 142.8138 217.6646 14.91600311417015
UNKNOWN                 
1 85133U          22223.39621989  .00001671  00000+0  73493-3 0  9991
2 85133  98.8619 286.7178 0028781 220.5577 139.3457 14.24651457357057
UNKNOWN                 
1 85151U 86019    22224.35376848  .00002743  00000+0  88203-3 0  9999
2 85151  98.4868  60.4280 0014185 280.6398  79.3192 14.40096153302425
UNKNOWN                 
1 85159U          22222.56773888  .00003644  00000+0  18082-2 0  9997
2 85159  98.8354 127.1629 0079892 124.2340 236.6436 14.16109215326030
UNKNOWN                 
1 85175U          22224.69722810  .00008414  00000+0  15495-2 0  9995
2 85175 101.3610 215.6340 0127845 170.8809 189.4745 14.60780233446209
